INTELSAT 23 (IS-23)     
1 38867U 12057A   23256.36027473 -.00000291  00000+0  00000+0 0  9998
2 38867   0.0498 258.0305 0001690 274.8057 255.9744  1.00270916 40003
BEIDOU-2 G6             
1 38953U 12059A   23256.15466000 -.00000182  00000+0  00000+0 0  9995
2 38953   1.8466  81.9019 0007459 311.5259  98.0778  1.00276167 39948
LUCH-5B                 
1 38977U 12061A   23255.29266944 -.00000140  00000+0  00000+0 0  9997
2 38977   8.2723  59.0539 0005694 113.1738 267.8926  1.00273301 39501
YAMAL 300K              
1 38978U 12061B   23255.83402616  .00000063  00000+0  00000+0 0  9999
2 38978   0.0125  99.8966 0000707  82.1981 292.6806  1.00273732 39522
STAR ONE C3             
1 38991U 12062A   23255.85438944 -.00000256  00000+0  00000+0 0  9995
2 38991   0.0222 158.2807 0002118  46.3477  19.5613  1.00267862 39641
EUTELSAT 21B            
1 38992U 12062B   23256.07827297  .00000122  00000+0  00000+0 0  9995
2 38992   0.0697   7.6762 0002698 160.4898 233.4196  1.00271078 39763
ECHOSTAR 16             
1 39008U 12065A   23255.92864288 -.00000290  00000+0  00000+0 0  9998
2 39008   0.0114 145.7126 0002229  22.8434  95.9271  1.00271530 39691
CHINASAT 12 (ZX 12)     
1 39017U 12067A   23256.10535619 -.00000215  00000+0  00000+0 0  9991
2 39017   0.0197 127.7119 0002484  64.2843 285.2861  1.00272832 39607
EUTELSAT 70B            
1 39020U 12069A   23256.38590899 -.00000050  00000+0  00000+0 0  9995
2 39020   0.0660   7.1594 0003382 177.7679  16.6098  1.00271654 39507
YAMAL 402               
1 39022U 12070A   23255.70535616  .00000077  00000+0  00000+0 0  9998
2 39022   0.0136 138.2535 0003615  38.4984 123.5187  1.00272635 39281
SKYNET 5D               
1 39034U 12075A   23256.06716066  .00000092  00000+0  00000+0 0  9993
2 39034   0.0719 357.8543 0003885 186.1486 244.6898  1.00271039 39412
MEXSAT 3                
1 39035U 12075B   23256.43490745 -.00000033  00000+0  00000+0 0  9994
2 39035   0.0207 171.1063 0001492  31.4356 191.3869  1.00279468 39374
TDRS 11                 
1 39070U 13004A   23255.69130917  .00000075  00000+0  00000+0 0  9990
2 39070   2.6948   1.2545 0004585  76.2334 348.6597  1.00279236 36588
AMAZONAS 3              
1 39078U 13006A   23256.35870833 -.00000289  00000+0  00000+0 0  9990
2 39078   0.0322 219.3296 0005287 346.4820 214.4379  1.00271908 38860
AZERSPACE 1             
1 39079U 13006B   23256.06715862  .00000126  00000+0  00000+0 0  9998
2 39079   0.0258 148.0100 0001638  52.8356 221.1125  1.00269773 38826
SBIRS GEO-2 (USA 241)   
1 39120U 13011A   23256.04980035 -.00000263  00000+0  00000+0 0  9998
2 39120   2.4939  40.7298 0001846 141.8352 149.1526  1.00271819 38476
EUTELSAT 117 WEST A     
1 39122U 13012A   23256.06091716 -.00000021  00000+0  00000+0 0  9994
2 39122   0.0438 303.3883 0002811 231.4305  82.1082  1.00272034 38351
ANIK G1                 
1 39127U 13014A   23256.06274463 -.00000082  00000+0  00000+0 0  9990
2 39127   0.0364 268.4036 0002168 307.3371  51.3417  1.00272430 38132
CHINASAT 11 (ZX 11)     
1 39157U 13020A   23255.81696973 -.00000299  00000+0  00000+0 0  9996
2 39157   0.0495 266.4779 0000816 339.0660 138.0240  1.00272126 37782
EUTELSAT 7B             
1 39163U 13022A   23255.87059885  .00000041  00000+0  00000+0 0  9990
2 39163   0.0712 341.6844 0001008  27.0487 303.3102  1.00274720 37859
WGS F5 (USA 243)        
1 39168U 13024A   23256.05535464 -.00000292  00000+0  00000+0 0  9999
2 39168   0.0254 157.5860 0000413  99.0711  62.5584  1.00267774 37719
SES-6                   
1 39172U 13026A   23255.43120937 -.00000270  00000+0  00000+0 0  9998
2 39172   0.0589 301.6880 0002520 246.3501 277.8652  1.00272677 37618
IRNSS-1A                
1 39199U 13034A   23252.08242812  .00000073  00000+0  00000+0 0  9991
2 39199  33.4344  78.6203 0020346 176.5021 177.7262  1.00280977 37216
MUOS-2                  
1 39206U 13036A   23255.69061299  .00000060  00000+0  00000+0 0  9996
2 39206   3.1918  35.6082 0057378 177.6178 209.8639  1.00275430 37082
ALPHASAT                
1 39215U 13038A   23256.08911247  .00000129  00000+0  00000+0 0  9995
2 39215   2.8468   9.7985 0003561 185.5072 213.4648  1.00271172 37167
INSAT-3D                
1 39216U 13038B   23255.81401097 -.00000165  00000+0  00000+0 0  9994
2 39216   0.0458 281.5797 0001795 297.3011 147.8000  1.00271504 36968
WGS F6 (USA 244)        
1 39222U 13041A   23256.47566007  .00000083  00000+0  00000+0 0  9999
2 39222   0.0065 200.3118 0000404  82.2104 105.7110  1.00271393 36966
ES'HAIL 1               
1 39233U 13044A   23256.07271569  .00000136  00000+0  00000+0 0  9995
2 39233   0.0240 359.2941 0001986 164.0823 240.1338  1.00267442 36791
GSAT-7                  
1 39234U 13044B   23256.38590899 -.00000084  00000+0  00000+0 0  9993
2 39234   0.0140 102.3838 0007752 155.4660 307.2100  1.00272027 36790
AMOS-4                  
1 39237U 13045A   23256.06160372  .00000000  00000+0  00000+0 0  9998
2 39237   0.0112 196.6331 0001057   3.6592 238.7008  1.00269270 36786
AEHF-3 (USA 246)        
1 39256U 13050A   23255.69513816  .00000127  00000+0  00000+0 0  9998
2 39256   2.7818  73.8144 0054956 183.6132 189.3485  1.00278022 35562
ASTRA 2E                
1 39285U 13056A   23256.08989567  .00000143  00000+0  00000+0 0  9998
2 39285   0.0857 316.5768 0003006 217.7630 238.3424  1.00270931 36480
FM-6                    
1 39360U 13058A   23256.06109122 -.00000024  00000+0  00000+0 0  9992
2 39360   0.0088 153.7004 0000150 307.4823 156.4385  1.00270045 36237
RADUGA-1M 3             
1 39375U 13062A   23255.80461253  .00000148  00000+0  00000+0 0  9996
2 39375   3.3765  84.5170 0001857 270.5397 321.1286  1.00274433 35995
SES-8                   
1 39460U 13071A   23255.78700814 -.00000278  00000+0  00000+0 0  9992
2 39460   0.0572 268.0607 0001936 245.3664 216.4295  1.00273783 34317
INMARSAT 5-F1           
1 39476U 13073A   23256.34632650  .00000021  00000+0  00000+0 0  9991
2 39476   0.0274 158.8014 0000334 181.6338 198.9208  1.00273321 35825
TKSAT-1 (TUPAC KATARI)  
1 39481U 13075A   23256.36230072 -.00000202  00000+0  00000+0 0  9995
2 39481   0.0540 314.8322 0002266 217.2679 223.2342  1.00272693 35746
EXPRESS-AM5             
1 39487U 13077A   23255.82549794 -.00000289  00000+0  00000+0 0  9992
2 39487   0.0273 167.2365 0000456  29.1411 232.3893  1.00267867 36240
GSAT-14                 
1 39498U 14001A   23255.81235753 -.00000086  00000+0  00000+0 0  9993
2 39498   0.0536 279.6621 0004647 321.6164 116.7151  1.00271843 35271
THAICOM 6               
1 39500U 14002A   23256.36299381 -.00000127  00000+0  00000+0 0  9992
2 39500   0.0465 117.4957 0004028  53.9956  29.7718  1.00270397 35415
TDRS 12                 
1 39504U 14004A   23256.22827313 -.00000275  00000+0  00000+0 0  9999
2 39504   3.5874 356.6358 0005493 186.5545 209.8799  1.00278338 35342
ABS-2                   
1 39508U 14006A   23255.81253160 -.00000095  00000+0  00000+0 0  9992
2 39508   0.0282 267.4790 0003062 264.8342 186.6623  1.00272498 35175
ATHENA-FIDUS            
1 39509U 14006B   23256.09172316  .00000147  00000+0  00000+0 0  9994
2 39509   0.0101 154.3591 0001405  45.9471 222.3313  1.00272005 35391
TURKSAT 4A              
1 39522U 14007A   23256.27757637  .00000139  00000+0  00000+0 0  9996
2 39522   0.0774 268.1000 0003965 308.5451 277.2946  1.00275249 35103
EXPRESS-AT1             
1 39612U 14010A   23255.09211288  .00000070  00000+0  00000+0 0  9990
2 39612   0.0149 230.3110 0000447 164.4230  45.2591  1.00265633 34696
EXPRESS-AT2             
1 39613U 14010B   23255.82549794 -.00000289  00000+0  00000+0 0  9991
2 39613   0.0216 244.2322 0000692  73.5141 110.8418  1.00273260 34393
AMAZONAS 4A             
1 39616U 14011A   23256.35609765 -.00000259  00000+0  00000+0 0  9996
2 39616   0.0257 140.4098 0003776  54.8384 211.0392  1.00271505 34761
ASTRA 5B                
1 39617U 14011B   23255.58730007  .00000128  00000+0  00000+0 0  9999
2 39617   0.0799 304.6892 0003323 255.4142  26.1314  1.00271899 34550
IRNSS-1B                
1 39635U 14017A   23255.09193883  .00000109  00000+0  00000+0 0  9995
2 39635  28.6906 257.5347 0019674 192.4422 349.0968  1.00277033 34675
LUCH-5V                 
1 39727U 14023A   23256.24952823 -.00000273  00000+0  00000+0 0  9992
2 39727   2.5946  77.2439 0003749 137.4611 321.7812  1.00268397552400
KAZSAT-3                
1 39728U 14023B   23256.40813105  .00000053  00000+0  00000+0 0  9995
2 39728   0.0167 207.8346 0000410 338.1345  11.6112  1.00276016 34335
EUTELSAT 3B             
1 39773U 14030A   23255.90576233  .00000012  00000+0  00000+0 0  9990
2 39773   0.0660   1.1812 0005185 190.4125 129.2147  1.00272114 33951
ASIASAT 8 (AMOS-7)      
1 40107U 14046A   23255.58181764 -.00000042  00000+0  00000+0 0  9999
2 40107   0.0177 133.1781 0002006  42.3502  21.3533  1.00270426 92030
ASIASAT 6               
1 40141U 14052A   23255.82149491 -.00000370  00000+0  00000+0 0  9996
2 40141   0.0359 265.0598 0000804 295.2007 206.9560  1.00272119 32951
OPTUS 10                
1 40146U 14054A   23255.76785650 -.00000155  00000+0  00000+0 0  9990
2 40146   0.0473 206.6999 0004187 326.5318 250.7064  1.00271982 33011
MEASAT-3B               
1 40147U 14054B   23255.91269744 -.00000249  00000+0  00000+0 0  9993
2 40147   0.0456 353.0365 0001434 125.0883 293.5766  1.00270230 32791
LUCH (OLYMP-K 1)        
1 40258U 14058A   23256.10755093 -.00000148  00000+0  00000+0 0  9997
2 40258   0.0147 202.4697 0001285 347.3158 182.7072  1.00272915 32830
HIMAWARI-8              
1 40267U 14060A   23256.03452444 -.00000283  00000+0  00000+0 0  9996
2 40267   0.0261 160.1173 0000917  65.1718 279.5687  1.00268989 32758
IRNSS-1C                
1 40269U 14061A   23255.67077184 -.00000168  00000+0  00000+0 0  9994
2 40269   3.9826 112.4520 0019871  18.6565 184.7501  1.00269390 32576
INTELSAT 30 (IS-30)     
1 40271U 14062A   23256.38168770 -.00000157  00000+0  00000+0 0  9997
2 40271   0.0261 157.9162 0002153 281.6276 314.9119  1.00267751 32663
